IRIDIUM 106             
1 41917U 17003A   24306.83053558  .00000382  00000+0  12938-3 0  9993
2 41917  86.3968 336.0829 0002391  84.5769 275.5699 14.34218599408303
IRIDIUM 103             
1 41918U 17003B   24306.81785173 -.00000179  00000+0 -70905-4 0  9992
2 41918  86.3967 335.9892 0002604 100.0593 260.0896 14.34216193408325
IRIDIUM 109             
1 41919U 17003C   24306.61488686  .00000480  00000+0  16417-3 0  9990
2 41919  86.3970 336.1241 0002191 104.6433 255.5006 14.34218458408266
IRIDIUM 102             
1 41920U 17003D   24306.79248059  .00001158  00000+0  40638-3 0  9994
2 41920  86.3969 335.9863 0001992  91.0027 269.1397 14.34218113408373
IRIDIUM 105             
1 41921U 17003E   24306.76320884  .00000119  00000+0  35317-4 0  9994
2 41921  86.3927 304.4225 0002377  89.4593 270.6875 14.34216679410228
IRIDIUM 104             
1 41922U 17003F   24306.80516439  .00000203  00000+0  65571-4 0  9992
2 41922  86.3968 336.0151 0002182 110.9882 249.1548 14.34215133408362
IRIDIUM 114             
1 41923U 17003G   24306.32312748  .00000227  00000+0  74101-4 0  9992
2 41923  86.3972 336.2012 0002459  92.9899 267.1578 14.34217911408279
IRIDIUM 108             
1 41924U 17003H   24306.90955488  .00000560  00000+0  19298-3 0  9996
2 41924  86.3919 304.2771 0002328  85.0642 275.0819 14.34222193410213
